CCSDS_OEM_VERS = 2.0  
CREATION_DATE  = 2026-05-08T15:36:39
ORIGINATOR     = ESOC/OPS-GFA                            
 
 



META_START
OBJECT_NAME          = LISA                                    
OBJECT_ID            = -1000                                   
CENTER_NAME          = SUN                     
REF_FRAME            = EME2000 
TIME_SYSTEM          = TCB
START_TIME           = 2036-12-23T00:00:30.346418            
STOP_TIME            = 2047-09-09T00:27:35.185747            
INTERPOLATION        = HERMITE                                 
INTERPOLATION_DEGREE = 7                                       
META_STOP

2042-03-20T03:16:03.489934    -1.38513786595095038e+08    5.32830659902026728e+07    2.43221098817056753e+07   -1.16029189945539688e+01   -2.50696331839901880e+01   -1.07464505890866100e+01    5.40455636568839712e-06   -2.07916495426813555e-06   -9.49072919038514232e-07
2042-03-20T23:37:28.213110    -1.39349561260635257e+08    5.14403260889860913e+07    2.35320382949142084e+07   -1.12056648172921900e+01   -2.52193651013864439e+01   -1.08148714915431352e+01    5.43664718064632448e-06   -2.00707341727130787e-06   -9.18158278206773035e-07
2042-03-21T19:58:52.936286    -1.40156138096583903e+08    4.95868070748731047e+07    2.27370356820649281e+07   -1.08061002446228880e+01   -2.53637990152692652e+01   -1.08810200432105670e+01    5.46760795908672149e-06   -1.93458055537775886e-06   -8.87059659171726544e-07
2042-03-22T16:20:17.659463    -1.40933350864895612e+08    4.77228982771045864e+07    2.19372690613651425e+07   -1.04043083050444451e+01   -2.55029060541271271e+01   -1.09448829928872939e+01    5.49743289761418051e-06   -1.86170110264249787e-06   -8.55783387519409505e-07
2042-03-23T12:41:42.382639    -1.41681039416299999e+08    4.58489911011559367e+07    2.11329064050237648e+07   -1.00003724437451105e+01   -2.56366584287032495e+01   -1.10064475540912259e+01    5.52611642756358681e-06   -1.78844986005674668e-06   -8.24335819990111221e-07
2042-03-24T09:03:07.105815    -1.42399049704307914e+08    4.39654789487457946e+07    2.03241166047500297e+07   -9.59437650551354793e+00   -2.57650294367562545e+01   -1.10657014072792155e+01    5.55365321112797109e-06   -1.71484169132746803e-06   -7.92723342615207144e-07
2042-03-25T05:24:31.828992    -1.43087233806404173e+08    4.20727571376221776e+07    1.95110694372210875e+07   -9.18640471811369785e+00   -2.58879934674501371e+01   -1.11226327019016598e+01    5.58003813254821051e-06   -1.64089151697965307e-06   -7.60952368081307336e-07
2042-03-26T01:45:56.552168    -1.43745449958226979e+08    4.01712228212357461e+07    1.86939355296190716e+07   -8.77654167648021399e+00   -2.60055260052529569e+01   -1.11772300582367095e+01    5.60526628450225033e-06   -1.56661430683316847e-06   -7.29029332345408729e-07
2042-03-26T22:07:21.275344    -1.44373562606534570e+08    3.82612749084100574e+07    1.78728863253379092e+07   -8.36487232809049530e+00   -2.61176036332234993e+01   -1.12294825689484554e+01    5.62933294964183120e-06   -1.49202507083998877e-06   -6.96960690494310300e-07
2042-03-27T18:28:45.998520    -1.44971442486759514e+08    3.63433139831186682e+07    1.70480940499604568e+07   -7.95148195986961159e+00   -2.62242040355653074e+01   -1.12793798003135048e+01    5.65223357724857537e-06   -1.41713884826209216e-06   -6.64752911839759414e-07
2042-03-28T14:50:10.721697    -1.45538966730950922e+08    3.44177422244787216e+07    1.62197316776060835e+07   -7.53645618698408182e+00   -2.63253059993273340e+01   -1.13269117930603294e+01    5.67396375493629733e-06   -1.34197069516534033e-06   -6.32412474237704561e-07
2042-03-29T11:07:27.891507    -1.46074255968935937e+08    3.24915038792638443e+07    1.53907880751786157e+07   -7.12129061103008709e+00   -2.64205758558945938e+01   -1.13719205340019194e+01    5.69445240436177624e-06   -1.26679116061258778e-06   -6.00055844353340323e-07
2042-03-30T07:24:45.061318    -1.46579169096396744e+08    3.05585080397513844e+07    1.45586435713660084e+07   -6.70467131514958226e+00   -2.65103455953666618e+01   -1.14145616611501755e+01    5.71377084282696011e-06   -1.19136175481254611e-06   -5.67580436265609572e-07
2042-03-31T03:42:02.231128    -1.47053603091808498e+08    2.86191570624937080e+07    1.37234713971552067e+07   -6.28668389509351400e+00   -2.65945975189894561e+01   -1.14548267367106273e+01    5.73191562133694371e-06   -1.11569757393518489e-06   -5.34992753652968841e-07
2042-03-31T23:59:19.400939    -1.47497461134003758e+08    2.66738545695982277e+07    1.28854453876349889e+07   -5.86741419274609743e+00   -2.66733150315477410e+01   -1.14927077983645063e+01    5.74888345344452981e-06   -1.03981374055361931e-06   -5.02299313041828592e-07
2042-04-01T20:16:36.570749    -1.47910652672201395e+08    2.47230053574820794e+07    1.20447399431057982e+07   -5.44694828334362047e+00   -2.67464826433217802e+01   -1.15281973602235741e+01    5.76467123924198843e-06   -9.63725404292338829e-07   -4.69506644198412785e-07
2042-04-02T16:33:53.740558    -1.48293093469964445e+08    2.27670153104572296e+07    1.12015299920581281e+07   -5.02537246111999281e+00   -2.68140859720701847e+01   -1.15612884138035916e+01    5.77927608455464135e-06   -8.87447741929560989e-07   -4.36621290262536190e-07
2042-04-03T12:51:10.910369    -1.48644705628553331e+08    2.08062913180388547e+07    1.03559909555869550e+07   -4.60277322372553144e+00   -2.68761117450002374e+01   -1.15919744289981033e+01    5.79269531534213406e-06   -8.10995956953248752e-07   -4.03649807623120826e-07
2042-04-04T09:08:28.080179    -1.48965417595133126e+08    1.88412411948871538e+07    9.50829871281730942e+06   -4.17923725576922145e+00   -2.69325478006858141e+01   -1.16202493550336925e+01    5.80492648729665735e-06   -7.34385278569164183e-07   -3.70598765534685118e-07
2042-04-05T05:25:45.249990    -1.49255164161292791e+08    1.68722736022929065e+07    8.65862956691604853e+06   -3.75485141183472226e+00   -2.69833830908929357e+01   -1.16461076213878041e+01    5.81596739065847448e-06   -6.57630960164169525e-07   -3.37474745476340437e-07
2042-04-06T01:43:02.419800    -1.49513886457335800e+08    1.48997979701170623e+07    7.80716021126490645e+06   -3.32970269932040708e+00   -2.70286076822730124e+01   -1.16695441386502665e+01    5.82581605021409326e-06   -5.80748277219062419e-07   -3.04284340250542224e-07
2042-04-06T22:00:19.589611    -1.49741531947800308e+08    1.29242244180947170e+07    6.95406769536987133e+06   -2.90387826145366734e+00   -2.70682127578838383e+01   -1.16905542993096212e+01    5.83447072052718429e-06   -5.03752524678777361e-07   -2.71034152825426605e-07
2042-04-07T18:17:36.759421    -1.49938054433667481e+08    1.09459636754135266e+07    6.09952939008204080e+06   -2.47746536082975854e+00   -2.71021906184984047e+01   -1.17091339784453972e+01    5.84192987635348578e-06   -4.26659013773934378e-07   -2.37730794917683641e-07
2042-04-08T14:34:53.929232    -1.50103414066716582e+08    8.96542699747714400e+06    5.24372295170491003e+06   -2.05055136382545289e+00   -2.71305346836615797e+01   -1.17252795343074308e+01    5.84819219826218215e-06   -3.49483068294612871e-07   -2.04380885316537472e-07
2042-04-09T10:52:11.099042    -1.50237577381485611e+08    6.98302607876383513e+06    4.38682628456327319e+06   -1.62322372623778843e+00   -2.71532394924547198e+01   -1.17389878087633655e+01    5.85325655346161155e-06   -2.72240020315448755e-07   -1.70991047948463274e-07
2042-04-10T07:09:28.268853    -1.50340517350295931e+08    4.99917296069028974e+06    3.52901750160878338e+06   -1.19556998049812879e+00   -2.71703007039282731e+01   -1.17502561275954456e+01    5.85712197186289065e-06   -1.94945205385176591e-07   -1.37567909688583542e-07
2042-04-11T03:26:45.438663    -1.50412213466799408e+08    3.01427993339158595e+06    2.67047488263718784e+06   -7.67677724811835382e-01   -2.71817150971624137e+01   -1.17590823006277230e+01    5.85978761723347073e-06   -1.17613957141281323e-07   -1.04118097900402125e-07
2042-04-11T23:39:06.464385    -1.50452550730563968e+08    1.03681091567309014e+06    1.81486112952619186e+06   -3.41370367236898398e-01   -2.71874686041609763e+01   -1.17654436809777287e+01    5.86124993410724535e-06   -4.05753629486524170e-08   -7.07840289011432146e-08
2042-04-12T19:51:27.490107    -1.50461875156543344e+08   -9.40872796549730003e+05    9.58872844924954697e+05    8.50000575239935330e-02   -2.71876179465274781e+01   -1.17693797842223695e+01    5.86152163907367403e-06    3.64689051428292698e-08   -3.74366809638875052e-08
2042-04-13T16:03:48.515830    -1.50440185332741559e+08   -2.91836356398076750e+06    1.02686469040486962e+05    5.11346945373357009e-01   -2.71821632636097661e+01   -1.17708898833735454e+01    5.86060281897305632e-06    1.13503666721052335e-07   -4.08262448069107364e-09
2042-04-14T12:16:09.541552    -1.50387486092841506e+08   -4.89525377290751599e+06   -7.53521512195566203e+05    9.37583704425625886e-01   -2.71711057992045220e+01   -1.17699737295509124e+01    5.85849372707864840e-06    1.90513736529466719e-07    2.92715658470678238e-08
2042-04-15T08:28:30.567273    -1.50303788561705470e+08   -6.87113593620951846e+06   -1.60957461044653784e+06    1.36362376798596507e+00   -2.71544479017101210e+01   -1.17666315522125888e+01    5.85519480619129082e-06    2.67483929881082158e-07    6.26193132598566291e-08
2042-04-16T04:40:51.592996    -1.50189110177480906e+08   -8.84560278456683829e+06   -2.46529637425706163e+06    1.78938060903503882e+00   -2.71321930239034472e+01   -1.17608640592285365e+01    5.85070670706125534e-06    3.44399067573589950e-07    9.59540410083537334e-08
2042-04-17T00:53:12.618718    -1.50043474695185363e+08   -1.08182473500209153e+07   -3.32051042519457731e+06    2.21476775588419583e+00   -2.71043457223772180e+01   -1.17526724368101068e+01    5.84503030214808249e-06    4.21243980307056289e-07    1.29269174239528437e-07
